OBJECT_NAME,OBJECT_ID,EPOCH,MEAN_MOTION,ECCENTRICITY,INCLINATION,RA_OF_ASC_NODE,ARG_OF_PERICENTER,MEAN_ANOMALY,EPHEMERIS_TYPE,CLASSIFICATION_TYPE,NORAD_CAT_ID,ELEMENT_SET_NO,REV_AT_EPOCH,BSTAR,MEAN_MOTION_DOT,MEAN_MOTION_DDOT
COSMO-SKYMED 1,2007-023A,2026-07-23T19:50:17.683584,14.97258074,.0001924,97.8864,36.9939,92.2122,267.9320,0,U,31598,999,3527,.27945E-3,.3177E-4,0
COSMOS 2428,2007-029A,2026-07-23T14:29:04.094304,14.12940551,.0007349,70.9381,278.0187,64.5683,295.6198,0,U,31792,999,98329,.21353E-3,.35E-5,0
SL-16 R/B,2007-029B,2026-07-23T14:40:27.651360,14.14857135,.0001936,70.9740,246.6603,260.7425,266.8699,0,U,31793,999,98459,.18012E-3,.3E-5,0
KORONAS-FOTON,2009-003A,2026-07-23T17:03:20.708640,15.46466627,.0011307,82.4304,134.1409,35.3735,324.8261,0,U,33504,999,96674,.27338E-3,.13622E-3,0
CZ-2C R/B,2011-030B,2026-07-23T09:30:08.465184,14.81543609,.0050647,97.8674,159.1353,268.7083,251.2245,0,U,37731,999,81018,.10622E-3,.796E-5,0
H-2A R/B,2012-025E,2026-07-23T09:55:49.037664,14.95859179,.0042763,98.4854,182.5552,227.1222,132.6403,0,U,38341,999,76850,.18683E-3,.2055E-4,0
SHIJIAN-16 (SJ-16),2013-057A,2026-07-23T20:02:51.828576,14.92686896,.0015454,74.9730,287.2695,143.7978,216.4260,0,U,39358,999,69181,.91073E-4,.912E-5,0
SL-4 R/B,2014-021B,2026-07-23T17:42:25.930368,15.42618448,.0089251,51.6068,31.6189,240.0024,119.2082,0,U,39679,999,67725,.22254E-3,.10935E-3,0
ALOS-2,2014-029A,2026-07-23T20:43:53.272992,14.79475113,.0001612,97.9223,301.5035,92.5095,267.6301,0,U,39766,999,65700,.15774E-3,.1127E-4,0
YAOGAN-29,2015-069A,2026-07-23T21:07:20.703072,14.83109215,.0000077,98.0026,233.5685,142.3618,217.7601,0,U,41038,999,57606,-.22141E-4,-.234E-5,0
ASTRO-H (HITOMI),2016-012A,2026-07-23T07:27:07.180992,15.10656982,.0009705,30.9974,200.8644,256.4013,103.5544,0,U,41337,999,57275,.1136E-3,.2024E-4,0
HXMT (HUIYAN),2017-034A,2026-07-23T18:28:40.488384,15.18749592,.0031108,43.0154,339.2968,14.9616,345.2146,0,U,42758,999,50322,.2948E-3,.6074E-4,0
SAOCOM 1A,2018-076A,2026-07-23T19:03:47.902752,14.82150447,.0001448,97.8897,31.0116,87.3162,272.8217,0,U,43641,999,42152,.21401E-4,.118E-5,0
H-2A R/B,2018-084L,2026-07-23T15:16:04.270656,15.46457419,.0020232,98.8521,91.5238,268.7185,91.1742,0,U,43682,999,42675,.41455E-3,.20611E-3,0
SAOCOM 1B,2020-059A,2026-07-23T19:48:44.281728,14.82149721,.0001541,97.8903,30.1392,87.3687,272.7703,0,U,46265,999,31891,.11083E-3,.83E-5,0
CSS (TIANHE),2021-035A,2026-07-23T17:44:40.762752,15.58301417,.0002755,41.4707,100.0404,309.6784,50.3810,0,U,48274,999,29887,.13794E-3,.1044E-3,0
COSMOS 2550,2021-056A,2026-07-23T20:47:46.485600,15.33897138,.0008573,67.1438,348.9514,269.2079,90.8093,0,U,48865,999,28434,.1857E-3,.5936E-4,0
CZ-2C R/B,2022-058K,2026-07-23T08:38:26.859840,15.64379383,.0029877,50.1859,334.9356,56.6037,303.7790,0,U,52794,999,23130,.42964E-3,.42695E-3,0
CZ-2C R/B,2022-132E,2026-07-23T06:27:28.309824,15.75882996,.0008474,97.2909,213.0233,301.3294,58.7141,0,U,54039,999,21162,.48121E-3,.7464E-3,0
GSLV R/B,2022-138AN,2026-07-23T06:33:04.099968,14.97411456,.0022521,87.3816,120.8668,24.9712,335.2604,0,U,54149,999,20421,.17683E-3,.2094E-4,0
XRISM,2023-137A,2026-07-23T21:07:44.234112,15.12722151,.0007772,31.0020,121.8633,332.4093,27.6132,0,U,57800,999,15842,.26674E-3,.4891E-4,0
ACS3,2024-077B,2026-07-23T08:33:30.176064,13.95779786,.0130593,97.1782,115.1445,27.3125,333.4830,0,U,59588,999,11308,.25194E-1,.37065E-3,0
SPACEMOBILE-003,2024-163A,2026-07-23T19:45:01.502784,15.20677350,.0003476,52.9689,140.9699,225.0265,135.0448,0,U,61045,999,10334,.12101E-3,.2367E-4,0
SPACEMOBILE-005,2024-163B,2026-07-23T05:09:29.939040,15.20624425,.0008301,52.9740,143.7232,219.1098,140.9297,0,U,61046,999,10324,.82557E-4,.1507E-4,0
SPACEMOBILE-001,2024-163C,2026-07-23T13:00:13.121856,15.20677408,.0006712,52.9700,141.9250,219.0311,141.0200,0,U,61047,999,10329,.13127E-4,-.36E-6,0
SPACEMOBILE-002,2024-163D,2026-07-23T01:35:18.499776,15.20478362,.0004784,52.9773,144.1623,212.6215,147.4484,0,U,61048,999,10322,.10167E-2,.22234E-3,0
SPACEMOBILE-004,2024-163E,2026-07-23T02:44:04.345152,15.20626990,.0005257,52.9731,143.7101,250.7696,109.2730,0,U,61049,999,10323,.96977E-3,.21285E-3,0
CZ-8A R/B,2025-231K,2026-07-23T10:57:46.105632,14.30164009,.0116538,50.0026,245.0095,351.7055,8.1933,0,U,66004,999,4013,.48577E-4,-.29E-6,0
SZ-21 MODULE,2025-246C,2026-07-22T23:23:27.454848,15.79442093,.00094943,41.4724,83.9224,269.0433,90.9325,0,U,66515,999,3939,.31977173E-3,.60021E-3,0
SPACEMOBILE-006,2025-309A,2026-07-23T21:32:48.642144,15.18696754,.0009427,52.9959,163.4648,245.2954,114.7059,0,U,67232,999,3217,.16274E-3,.3101E-4,0
